[{"OBJECT_NAME":"STARLINK-36543","OBJECT_ID":"2026-012Y","EPOCH":"2026-03-09T23:06:20.124288","MEAN_MOTION":15.27583112,"ECCENTRICITY":7.498e-5,"INCLINATION":42.9985,"RA_OF_ASC_NODE":312.8495,"ARG_OF_PERICENTER":251.8821,"MEAN_ANOMALY":108.1949,"EPHEMERIS_TYPE":0,"CLASSIFICATION_TYPE":"U","NORAD_CAT_ID":67515,"ELEMENT_SET_NO":999,"REV_AT_EPOCH":780,"BSTAR":0.00090729604,"MEAN_MOTION_DOT":0.00024791,"MEAN_MOTION_DDOT":0},{"OBJECT_NAME":"CZ-6A DEB","OBJECT_ID":"2023-168D","EPOCH":"2026-03-09T19:03:52.964928","MEAN_MOTION":15.28240044,"ECCENTRICITY":0.00013417,"INCLINATION":97.7802,"RA_OF_ASC_NODE":98.3362,"ARG_OF_PERICENTER":174.0661,"MEAN_ANOMALY":186.0594,"EPHEMERIS_TYPE":0,"CLASSIFICATION_TYPE":"U","NORAD_CAT_ID":58202,"ELEMENT_SET_NO":999,"REV_AT_EPOCH":12922,"BSTAR":0.0014474773,"MEAN_MOTION_DOT":0.00039923,"MEAN_MOTION_DDOT":0}]
